NUSAT-48 (HENRIETTA LE*)
1 60498U 24149AG  26068.80506098  .00012988  00000+0  45212-3 0  9999
2 60498  97.3923 150.8264 0002754 263.3026  96.7901 15.29812597 86946
STARLINK-36409          
1 67406U 26005C   26068.48508282  .00042276  00000+0  15358-2 0  9999
2 67406  42.9972 239.2756 0001820 274.1600  85.9044 15.27606185  8664
